NORAD_CAT_ID,OBJECT_NAME,OBJECT_TYPE,EPOCH,MEAN_MOTION,ECCENTRICITY,INCLINATION,RA_OF_ASC_NODE,ARG_OF_PERICENTER,MEAN_ANOMALY,BSTAR,MEAN_MOTION_DOT,MEAN_MOTION_DDOT,TLE_LINE0,TLE_LINE1,TLE_LINE2,SEMIMAJOR_AXIS,PERIOD,APOGEE,PERIGEE,DECAYED
56767.0,STARLINK-6197,PAYLOAD,2023-12-27 21:16:33,14.98329448,0.0002642,69.9989,228.658,256.4735,103.613,3.0299e-05,2.69e-06,0.0,0 STARLINK-6197,1 56767U 23078A   23361.88649576  .00000269  00000-0  30299-4 0  9993,2 56767  69.9989 228.6580 0002642 256.4735 103.6130 14.98329448 31932,6950.195,96.107,573.896,570.223,0.0
56767.0,STARLINK-6197,PAYLOAD,2023-12-28 14:54:02,14.98328647,0.0002751,69.9997,226.8071,257.9815,102.1036,-3.4897e-05,-5.09e-06,0.0,0 STARLINK-6197,1 56767U 23078A   23362.62085828 -.00000509  00000-0 -34897-4 0  9997,2 56767  69.9997 226.8071 0002751 257.9815 102.1036 14.98328647 32044,6950.197,96.107,573.974,570.15,0.0
56767.0,STARLINK-6197,PAYLOAD,2023-12-28 19:42:26,14.9832678,0.000282,69.9994,226.3019,260.884,99.2,-5.3684e-05,-7.33e-06,0.0,0 STARLINK-6197,1 56767U 23078A   23362.82114049 -.00000733  00000-0 -53684-4 0  9991,2 56767  69.9994 226.3019 0002820 260.8840  99.2000 14.98326780 32331,6950.203,96.107,574.028,570.108,0.0
56767.0,STARLINK-6197,PAYLOAD,2023-12-28 21:18:34,14.98326414,0.0002951,69.9986,226.1327,264.1562,95.926,-5.3081e-05,-7.26e-06,0.0,0 STARLINK-6197,1 56767U 23078A   23362.88790087 -.00000726  00000-0 -53081-4 0  9992,2 56767  69.9986 226.1327 0002951 264.1562  95.9260 14.98326414 32082,6950.204,96.107,574.12,570.018,0.0
56767.0,STARLINK-6197,PAYLOAD,2023-12-29 14:56:03,14.98330644,0.000292,69.9984,224.2808,268.5767,91.5057,5.9704e-06,-2.2e-07,0.0,0 STARLINK-6197,1 56767U 23078A   23363.62225727 -.00000022  00000-0  59704-5 0  9996,2 56767  69.9984 224.2808 0002920 268.5767  91.5057 14.98330644 32192,6950.191,96.107,574.085,570.026,0.0
56767.0,STARLINK-6197,PAYLOAD,2023-12-29 19:44:27,14.98331849,0.0002846,69.9984,223.7751,266.6929,93.3904,2.8809e-05,2.51e-06,0.0,0 STARLINK-6197,1 56767U 23078A   23363.82253561  .00000251  00000-0  28809-4 0  9999,2 56767  69.9984 223.7751 0002846 266.6929  93.3904 14.98331849 32480,6950.187,96.107,574.03,570.074,0.0
56767.0,STARLINK-6197,PAYLOAD,2023-12-29 21:20:35,14.98331808,0.0002839,69.9984,223.6069,266.4613,93.6222,2.8339e-05,2.45e-06,0.0,0 STARLINK-6197,1 56767U 23078A   23363.88929557  .00000245  00000-0  28339-4 0  9991,2 56767  69.9984 223.6069 0002839 266.4613  93.6222 14.98331808 32235,6950.187,96.107,574.025,570.079,0.0
56767.0,STARLINK-6197,PAYLOAD,2023-12-30 14:58:03,14.98328794,0.0002833,69.9986,221.7553,268.7405,91.343,5.2047e-05,5.28e-06,0.0,0 STARLINK-6197,1 56767U 23078A   23364.62365572  .00000528  00000-0  52047-4 0  9992,2 56767  69.9986 221.7553 0002833 268.7405  91.3430 14.98328794 32340,6950.197,96.107,574.031,570.093,0.0
56767.0,STARLINK-6197,PAYLOAD,2023-12-30 19:46:28,14.98329018,0.0002831,69.9987,221.2502,268.8944,91.1891,5.0707e-05,5.12e-06,0.0,0 STARLINK-6197,1 56767U 23078A   23364.82393559  .00000512  00000-0  50707-4 0  9994,2 56767  69.9987 221.2502 0002831 268.8944  91.1891 14.98329018 32638,6950.196,96.107,574.029,570.093,0.0
56767.0,STARLINK-6197,PAYLOAD,2023-12-30 21:22:36,14.98328801,0.0002833,69.9987,221.0819,268.9415,91.1419,4.6843e-05,4.66e-06,0.0,0 STARLINK-6197,1 56767U 23078A   23364.89069582  .00000466  00000-0  46843-4 0  9991,2 56767  69.9987 221.0819 0002833 268.9415  91.1419 14.98328801 32380,6950.197,96.107,574.031,570.093,0.0
56767.0,STARLINK-6197,PAYLOAD,2023-12-31 19:48:28,14.98332862,0.0002733,69.9991,218.7257,267.6985,92.3861,-2.9181e-05,-4.41e-06,0.0,0 STARLINK-6197,1 56767U 23078A   23365.82533425 -.00000441  00000-0 -29181-4 0  9998,2 56767  69.9991 218.7257 0002733 267.6985  92.3861 14.98332862 32781,6950.184,96.107,573.949,570.15,0.0
56767.0,STARLINK-6197,PAYLOAD,2023-12-31 21:24:36,14.98332269,0.0002748,69.9991,218.5575,267.8956,92.1888,-3.6472e-05,-5.28e-06,0.0,0 STARLINK-6197,1 56767U 23078A   23365.89209469 -.00000528  00000-0 -36472-4 0  9990,2 56767  69.9991 218.5575 0002748 267.8956  92.1888 14.98332269 32539,6950.186,96.107,573.961,570.141,0.0
56767.0,STARLINK-6197,PAYLOAD,2024-01-01 15:02:05,14.98332008,0.0002726,69.9993,216.7067,268.8994,91.1853,5.5919e-06,-2.6e-07,0.0,0 STARLINK-6197,1 56767U 23078A   24001.62645227 -.00000026  00000-0  55919-5 0  9995,2 56767  69.9993 216.7067 0002726 268.8994  91.1853 14.98332008 32640,6950.187,96.107,573.946,570.157,0.0
56767.0,STARLINK-6197,PAYLOAD,2024-01-01 19:50:29,14.98332313,0.000272,69.9993,216.2015,268.0824,92.0023,1.0776e-05,3.6e-07,0.0,0 STARLINK-6197,1 56767U 23078A   24001.82673151  .00000036  00000-0  10776-4 0  9995,2 56767  69.9993 216.2015 0002720 268.0824  92.0023 14.98332313 32936,6950.186,96.107,573.941,570.16,0.0
56767.0,STARLINK-6197,PAYLOAD,2024-01-01 21:26:37,14.9833276,0.0002702,69.9992,216.0331,267.5395,92.5455,1.7198e-05,1.12e-06,0.0,0 STARLINK-6197,1 56767U 23078A   24001.89349089  .00000112  00000-0  17198-4 0  9992,2 56767  69.9992 216.0331 0002702 267.5395  92.5455 14.98332760 32683,6950.184,96.107,573.927,570.171,0.0
56767.0,STARLINK-6197,PAYLOAD,2024-01-02 15:04:06,14.98331369,0.0002693,69.9992,214.1823,262.2934,97.792,9.6378e-06,2.2e-07,0.0,0 STARLINK-6197,1 56767U 23078A   24002.62785052  .00000022  00000-0  96378-5 0  9996,2 56767  69.9992 214.1823 0002693 262.2934  97.7920 14.98331369 32798,6950.189,96.107,573.925,570.182,0.0
56767.0,STARLINK-6197,PAYLOAD,2024-01-02 21:28:38,14.98331611,0.000268,69.9992,213.509,261.556,98.5296,1.2857e-05,6e-07,0.0,0 STARLINK-6197,1 56767U 23078A   24002.89488987  .00000060  00000-0  12857-4 0  9993,2 56767  69.9992 213.5090 0002680 261.5560  98.5296 14.98331611 32830,6950.188,96.107,573.916,570.19,0.0
56767.0,STARLINK-6197,PAYLOAD,2024-01-02 23:04:46,14.98331421,0.0002685,69.9992,213.3407,262.2933,97.7921,9.8523e-06,2.5e-07,0.0,0 STARLINK-6197,1 56767U 23078A   24002.96165002  .00000025  00000-0  98523-5 0  9997,2 56767  69.9992 213.3407 0002685 262.2933  97.7921 14.98331421 33103,6950.188,96.107,573.92,570.187,0.0
56767.0,STARLINK-6197,PAYLOAD,2024-01-03 13:29:59,14.98329023,0.0002624,69.9992,211.8259,262.8075,97.2786,-3.4438e-05,-5.04e-06,0.0,0 STARLINK-6197,1 56767U 23078A   24003.56249264 -.00000504  00000-0 -34438-4 0  9995,2 56767  69.9992 211.8259 0002624 262.8075  97.2786 14.98329023 32936,6950.196,96.107,573.885,570.237,0.0
56767.0,STARLINK-6197,PAYLOAD,2024-01-03 21:30:39,14.98327604,0.0002509,69.999,210.9841,256.8428,103.2451,-2.3469e-05,-3.73e-06,0.0,0 STARLINK-6197,1 56767U 23078A   24003.89629326 -.00000373  00000-0 -23469-4 0  9998,2 56767  69.9990 210.9841 0002509 256.8428 103.2451 14.98327604 32983,6950.2,96.107,573.809,570.321,0.0
56767.0,STARLINK-6197,PAYLOAD,2024-01-03 23:06:47,14.983269,0.0002486,69.9989,210.8158,257.645,102.4431,-3.0698e-05,-4.59e-06,0.0,0 STARLINK-6197,1 56767U 23078A   24003.96305406 -.00000459  00000-0 -30698-4 0  9993,2 56767  69.9989 210.8158 0002486 257.6450 102.4431 14.98326900 33257,6950.202,96.107,573.795,570.34,0.0
56767.0,STARLINK-6197,PAYLOAD,2024-01-04 13:32:00,14.98329674,0.0002845,69.9983,209.2992,267.5891,92.4942,-1.3922e-05,-2.59e-06,0.0,0 STARLINK-6197,1 56767U 23078A   24004.56389184 -.00000259  00000-0 -13922-4 0  9994,2 56767  69.9983 209.2992 0002845 267.5891  92.4942 14.98329674 33084,6950.194,96.107,574.036,570.082,0.0
56767.0,STARLINK-6197,PAYLOAD,2024-01-04 21:32:40,14.98330353,0.0002709,69.9987,208.4584,263.5312,96.5539,-5.847e-06,-1.63e-06,0.0,0 STARLINK-6197,1 56767U 23078A   24004.89769104 -.00000163  00000-0 -58470-5 0  9996,2 56767  69.9987 208.4584 0002709 263.5312  96.5539 14.98330353 33138,6950.192,96.107,573.94,570.174,0.0
56767.0,STARLINK-6197,PAYLOAD,2024-01-04 23:08:48,14.98330805,0.0002702,69.9988,208.2902,263.2258,96.8593,-6.752e-07,-1.01e-06,0.0,0 STARLINK-6197,1 56767U 23078A   24004.96445058 -.00000101  00000-0 -67520-6 0  9992,2 56767  69.9988 208.2902 0002702 263.2258  96.8593 14.98330805 33405,6950.19,96.107,573.933,570.177,0.0
56767.0,STARLINK-6197,PAYLOAD,2024-01-05 13:34:01,14.98327339,0.0002703,69.9988,206.7756,263.9742,96.1109,2.1256e-05,1.61e-06,0.0,0 STARLINK-6197,1 56767U 23078A   24005.56529232  .00000161  00000-0  21256-4 0  9994,2 56767  69.9988 206.7756 0002703 263.9742  96.1109 14.98327339 33236,6950.201,96.107,573.945,570.187,0.0
56767.0,STARLINK-6197,PAYLOAD,2024-01-05 21:34:41,14.98326983,0.0002717,69.9988,205.9341,264.5207,95.5642,1.5259e-05,8.9e-07,0.0,0 STARLINK-6197,1 56767U 23078A   24005.89909325  .00000089  00000-0  15259-4 0  9990,2 56767  69.9988 205.9341 0002717 264.5207  95.5642 14.98326983 33289,6950.202,96.107,573.956,570.179,0.0
56767.0,STARLINK-6197,PAYLOAD,2024-01-05 23:10:49,14.98327693,0.0002765,69.9987,205.7654,267.607,92.4772,2.0171e-05,1.48e-06,0.0,0 STARLINK-6197,1 56767U 23078A   24005.96585289  .00000148  00000-0  20171-4 0  9992,2 56767  69.9987 205.7654 0002765 267.6070  92.4772 14.98327693 33557,6950.2,96.107,573.987,570.143,0.0
56767.0,STARLINK-6197,PAYLOAD,2024-01-06 11:59:54,14.98331131,0.000277,69.9988,204.4191,269.2909,90.7933,1.179e-05,4.8e-07,0.0,0 STARLINK-6197,1 56767U 23078A   24006.49993121  .00000048  00000-0  11790-4 0  9995,2 56767  69.9988 204.4191 0002770 269.2909  90.7933 14.98331131 33377,6950.189,96.107,573.98,570.129,0.0
56767.0,STARLINK-6197,PAYLOAD,2024-01-06 21:36:42,14.98331773,0.0002753,69.9989,203.4092,269.5863,90.498,2.0007e-05,1.46e-06,0.0,0 STARLINK-6197,1 56767U 23078A   24006.90049016  .00000146  00000-0  20007-4 0  9996,2 56767  69.9989 203.4092 0002753 269.5863  90.4980 14.98331773 33438,6950.187,96.107,573.966,570.139,0.0
56767.0,STARLINK-6197,PAYLOAD,2024-01-06 23:12:50,14.98332144,0.0002754,69.9989,203.2409,269.6944,90.3899,2.355e-05,1.88e-06,0.0,0 STARLINK-6197,1 56767U 23078A   24006.96724974  .00000188  00000-0  23550-4 0  9997,2 56767  69.9989 203.2409 0002754 269.6944  90.3899 14.98332144 33701,6950.186,96.107,573.965,570.137,0.0
